CCSDS_OMM_VERS = 2.0
CREATION_DATE  = 
ORIGINATOR     = 

OBJECT_NAME    = STARLINK-36045
OBJECT_ID      = 2025-278W
CENTER_NAME    = EARTH
REF_FRAME      = TEME
TIME_SYSTEM    = UTC
MEAN_ELEMENT_THEORY = SGP/SGP4

EPOCH          = 2025-12-18T06:00:02.999808
MEAN_MOTION    = 15.72027333
ECCENTRICITY   = .0001605
INCLINATION    = 42.9989
RA_OF_ASC_NODE = 218.3872
ARG_OF_PERICENTER = 275.7551
MEAN_ANOMALY   = 201.4109

EPHEMERIS_TYPE = 0
CLASSIFICATION_TYPE = U
NORAD_CAT_ID   = 66811
ELEMENT_SET_NO = 999
REV_AT_EPOCH   = 384
BSTAR          = -.16419831E-1
MEAN_MOTION_DOT = -.1960283E-1
MEAN_MOTION_DDOT = 0

CCSDS_OMM_VERS = 2.0
CREATION_DATE  = 
ORIGINATOR     = 

OBJECT_NAME    = STARLINK-36054
OBJECT_ID      = 2025-278X
CENTER_NAME    = EARTH
REF_FRAME      = TEME
TIME_SYSTEM    = UTC
MEAN_ELEMENT_THEORY = SGP/SGP4

EPOCH          = 2025-12-18T06:00:02.999808
MEAN_MOTION    = 15.72027884
ECCENTRICITY   = .00015455
INCLINATION    = 42.9990
RA_OF_ASC_NODE = 218.3771
ARG_OF_PERICENTER = 276.8564
MEAN_ANOMALY   = 204.1447

EPHEMERIS_TYPE = 0
CLASSIFICATION_TYPE = U
NORAD_CAT_ID   = 66812
ELEMENT_SET_NO = 999
REV_AT_EPOCH   = 384
BSTAR          = -.16432367E-1
MEAN_MOTION_DOT = -.1961598E-1
MEAN_MOTION_DDOT = 0

CCSDS_OMM_VERS = 2.0
CREATION_DATE  = 
ORIGINATOR     = 

OBJECT_NAME    = STARLINK-36042
OBJECT_ID      = 2025-278Y
CENTER_NAME    = EARTH
REF_FRAME      = TEME
TIME_SYSTEM    = UTC
MEAN_ELEMENT_THEORY = SGP/SGP4

EPOCH          = 2025-12-18T06:00:02.999808
MEAN_MOTION    = 15.72721168
ECCENTRICITY   = .00012433
INCLINATION    = 42.9984
RA_OF_ASC_NODE = 218.3714
ARG_OF_PERICENTER = 284.0065
MEAN_ANOMALY   = 199.0640

EPHEMERIS_TYPE = 0
CLASSIFICATION_TYPE = U
NORAD_CAT_ID   = 66813
ELEMENT_SET_NO = 999
REV_AT_EPOCH   = 384
BSTAR          = .15824962E-2
MEAN_MOTION_DOT = .22548E-2
MEAN_MOTION_DDOT = 0

CCSDS_OMM_VERS = 2.0
CREATION_DATE  = 
ORIGINATOR     = 

OBJECT_NAME    = STARLINK-35984
OBJECT_ID      = 2025-278Z
CENTER_NAME    = EARTH
REF_FRAME      = TEME
TIME_SYSTEM    = UTC
MEAN_ELEMENT_THEORY = SGP/SGP4

EPOCH          = 2025-12-18T06:00:02.999808
MEAN_MOTION    = 15.72025217
ECCENTRICITY   = .0001611
INCLINATION    = 42.9992
RA_OF_ASC_NODE = 218.3424
ARG_OF_PERICENTER = 273.9076
MEAN_ANOMALY   = 220.5132

EPHEMERIS_TYPE = 0
CLASSIFICATION_TYPE = U
NORAD_CAT_ID   = 66814
ELEMENT_SET_NO = 999
REV_AT_EPOCH   = 393
BSTAR          = -.16403069E-1
MEAN_MOTION_DOT = -.1958361E-1
MEAN_MOTION_DDOT = 0

CCSDS_OMM_VERS = 2.0
CREATION_DATE  = 
ORIGINATOR     = 

OBJECT_NAME    = STARLINK-35985
OBJECT_ID      = 2025-278AA
CENTER_NAME    = EARTH
REF_FRAME      = TEME
TIME_SYSTEM    = UTC
MEAN_ELEMENT_THEORY = SGP/SGP4

EPOCH          = 2025-12-18T06:00:02.999808
MEAN_MOTION    = 15.72022932
ECCENTRICITY   = .00015752
INCLINATION    = 42.9992
RA_OF_ASC_NODE = 218.3466
ARG_OF_PERICENTER = 275.2499
MEAN_ANOMALY   = 217.2593

EPHEMERIS_TYPE = 0
CLASSIFICATION_TYPE = U
NORAD_CAT_ID   = 66815
ELEMENT_SET_NO = 999
REV_AT_EPOCH   = 393
BSTAR          = -.16414709E-1
MEAN_MOTION_DOT = -.195939E-1
MEAN_MOTION_DDOT = 0

CCSDS_OMM_VERS = 2.0
CREATION_DATE  = 
ORIGINATOR     = 

OBJECT_NAME    = STARLINK-36098
OBJECT_ID      = 2025-278AB
CENTER_NAME    = EARTH
REF_FRAME      = TEME
TIME_SYSTEM    = UTC
MEAN_ELEMENT_THEORY = SGP/SGP4

EPOCH          = 2025-12-18T06:00:02.999808
MEAN_MOTION    = 15.72020878
ECCENTRICITY   = .00016135
INCLINATION    = 42.9991
RA_OF_ASC_NODE = 218.3672
ARG_OF_PERICENTER = 275.2205
MEAN_ANOMALY   = 209.6165

EPHEMERIS_TYPE = 0
CLASSIFICATION_TYPE = U
NORAD_CAT_ID   = 66816
ELEMENT_SET_NO = 999
REV_AT_EPOCH   = 368
BSTAR          = -.16345904E-1
MEAN_MOTION_DOT = -.1952004E-1
MEAN_MOTION_DDOT = 0

CCSDS_OMM_VERS = 2.0
CREATION_DATE  = 
ORIGINATOR     = 

OBJECT_NAME    = STARLINK-35995
OBJECT_ID      = 2025-278AC
CENTER_NAME    = EARTH
REF_FRAME      = TEME
TIME_SYSTEM    = UTC
MEAN_ELEMENT_THEORY = SGP/SGP4

EPOCH          = 2025-12-18T06:00:02.999808
MEAN_MOTION    = 15.72029592
ECCENTRICITY   = .00015963
INCLINATION    = 42.9994
RA_OF_ASC_NODE = 218.3577
ARG_OF_PERICENTER = 273.5689
MEAN_ANOMALY   = 215.0972

EPHEMERIS_TYPE = 0
CLASSIFICATION_TYPE = U
NORAD_CAT_ID   = 66817
ELEMENT_SET_NO = 999
REV_AT_EPOCH   = 384
BSTAR          = -.16444611E-1
MEAN_MOTION_DOT = -.1963059E-1
MEAN_MOTION_DDOT = 0

CCSDS_OMM_VERS = 2.0
CREATION_DATE  = 
ORIGINATOR     = 

OBJECT_NAME    = STARLINK-35994
OBJECT_ID      = 2025-278AD
CENTER_NAME    = EARTH
REF_FRAME      = TEME
TIME_SYSTEM    = UTC
MEAN_ELEMENT_THEORY = SGP/SGP4

EPOCH          = 2025-12-18T06:00:02.999808
MEAN_MOTION    = 15.72025010
ECCENTRICITY   = .00014647
INCLINATION    = 42.9991
RA_OF_ASC_NODE = 218.3628
ARG_OF_PERICENTER = 277.2308
MEAN_ANOMALY   = 209.5231

EPHEMERIS_TYPE = 0
CLASSIFICATION_TYPE = U
NORAD_CAT_ID   = 66818
ELEMENT_SET_NO = 999
REV_AT_EPOCH   = 384
BSTAR          = -.16405745E-1
MEAN_MOTION_DOT = -.195851E-1
MEAN_MOTION_DDOT = 0

CCSDS_OMM_VERS = 2.0
CREATION_DATE  = 
ORIGINATOR     = 

OBJECT_NAME    = STARLINK-35989
OBJECT_ID      = 2025-278AE
CENTER_NAME    = EARTH
REF_FRAME      = TEME
TIME_SYSTEM    = UTC
MEAN_ELEMENT_THEORY = SGP/SGP4

EPOCH          = 2025-12-18T06:00:02.999808
MEAN_MOTION    = 15.72023376
ECCENTRICITY   = .00015919
INCLINATION    = 42.9989
RA_OF_ASC_NODE = 218.3522
ARG_OF_PERICENTER = 273.7014
MEAN_ANOMALY   = 216.8846

EPHEMERIS_TYPE = 0
CLASSIFICATION_TYPE = U
NORAD_CAT_ID   = 66819
ELEMENT_SET_NO = 999
REV_AT_EPOCH   = 384
BSTAR          = -.16363062E-1
MEAN_MOTION_DOT = -.1953985E-1
MEAN_MOTION_DDOT = 0

CCSDS_OMM_VERS = 2.0
CREATION_DATE  = 
ORIGINATOR     = 

OBJECT_NAME    = KOMPSAT-7
OBJECT_ID      = 2025-279A
CENTER_NAME    = EARTH
REF_FRAME      = TEME
TIME_SYSTEM    = UTC
MEAN_ELEMENT_THEORY = SGP/SGP4

EPOCH          = 2025-12-15T00:17:19.244256
MEAN_MOTION    = 15.00155940
ECCENTRICITY   = .00093948
INCLINATION    = 97.6410
RA_OF_ASC_NODE = 294.8339
ARG_OF_PERICENTER = 252.0315
MEAN_ANOMALY   = 107.9885

EPHEMERIS_TYPE = 0
CLASSIFICATION_TYPE = U
NORAD_CAT_ID   = 66820
ELEMENT_SET_NO = 999
REV_AT_EPOCH   = 199
BSTAR          = .25788518E-3
MEAN_MOTION_DOT = .3163E-4
MEAN_MOTION_DDOT = 0

CCSDS_OMM_VERS = 2.0
CREATION_DATE  = 
ORIGINATOR     = 

OBJECT_NAME    = STARLINK-35966
OBJECT_ID      = 2025-280A
CENTER_NAME    = EARTH
REF_FRAME      = TEME
TIME_SYSTEM    = UTC
MEAN_ELEMENT_THEORY = SGP/SGP4

EPOCH          = 2025-12-18T06:00:02.999808
MEAN_MOTION    = 15.58738783
ECCENTRICITY   = .00032882
INCLINATION    = 69.9991
RA_OF_ASC_NODE = 183.3421
ARG_OF_PERICENTER = 275.0486
MEAN_ANOMALY   = 265.0167

EPHEMERIS_TYPE = 0
CLASSIFICATION_TYPE = U
NORAD_CAT_ID   = 66821
ELEMENT_SET_NO = 999
REV_AT_EPOCH   = 378
BSTAR          = -.29476265E-1
MEAN_MOTION_DOT = -.2002322E-1
MEAN_MOTION_DDOT = 0

CCSDS_OMM_VERS = 2.0
CREATION_DATE  = 
ORIGINATOR     = 

OBJECT_NAME    = STARLINK-35958
OBJECT_ID      = 2025-280B
CENTER_NAME    = EARTH
REF_FRAME      = TEME
TIME_SYSTEM    = UTC
MEAN_ELEMENT_THEORY = SGP/SGP4

EPOCH          = 2025-12-18T06:00:02.999808
MEAN_MOTION    = 15.58755942
ECCENTRICITY   = .00034432
INCLINATION    = 70.0072
RA_OF_ASC_NODE = 183.3418
ARG_OF_PERICENTER = 278.3786
MEAN_ANOMALY   = 263.5955

EPHEMERIS_TYPE = 0
CLASSIFICATION_TYPE = U
NORAD_CAT_ID   = 66822
ELEMENT_SET_NO = 999
REV_AT_EPOCH   = 378
BSTAR          = -.30183462E-1
MEAN_MOTION_DOT = -.2045606E-1
MEAN_MOTION_DDOT = 0

CCSDS_OMM_VERS = 2.0
CREATION_DATE  = 
ORIGINATOR     = 

OBJECT_NAME    = STARLINK-35957
OBJECT_ID      = 2025-280C
CENTER_NAME    = EARTH
REF_FRAME      = TEME
TIME_SYSTEM    = UTC
MEAN_ELEMENT_THEORY = SGP/SGP4

EPOCH          = 2025-12-18T06:00:02.999808
MEAN_MOTION    = 15.58755578
ECCENTRICITY   = .00034074
INCLINATION    = 70.0071
RA_OF_ASC_NODE = 183.3389
ARG_OF_PERICENTER = 278.2702
MEAN_ANOMALY   = 265.6217

EPHEMERIS_TYPE = 0
CLASSIFICATION_TYPE = U
NORAD_CAT_ID   = 66823
ELEMENT_SET_NO = 999
REV_AT_EPOCH   = 378
BSTAR          = -.30166045E-1
MEAN_MOTION_DOT = -.2044517E-1
MEAN_MOTION_DDOT = 0

CCSDS_OMM_VERS = 2.0
CREATION_DATE  = 
ORIGINATOR     = 

OBJECT_NAME    = STARLINK-35896
OBJECT_ID      = 2025-280D
CENTER_NAME    = EARTH
REF_FRAME      = TEME
TIME_SYSTEM    = UTC
MEAN_ELEMENT_THEORY = SGP/SGP4

EPOCH          = 2025-12-18T06:00:02.999808
MEAN_MOTION    = 15.58755677
ECCENTRICITY   = .00032991
INCLINATION    = 70.0071
RA_OF_ASC_NODE = 183.3369
ARG_OF_PERICENTER = 275.5780
MEAN_ANOMALY   = 270.2295

EPHEMERIS_TYPE = 0
CLASSIFICATION_TYPE = U
NORAD_CAT_ID   = 66824
ELEMENT_SET_NO = 999
REV_AT_EPOCH   = 378
BSTAR          = -.3011934E-1
MEAN_MOTION_DOT = -.2041657E-1
MEAN_MOTION_DDOT = 0

CCSDS_OMM_VERS = 2.0
CREATION_DATE  = 
ORIGINATOR     = 

OBJECT_NAME    = STARLINK-35476
OBJECT_ID      = 2025-280E
CENTER_NAME    = EARTH
REF_FRAME      = TEME
TIME_SYSTEM    = UTC
MEAN_ELEMENT_THEORY = SGP/SGP4

EPOCH          = 2025-12-18T06:00:02.999808
MEAN_MOTION    = 15.58764973
ECCENTRICITY   = .00032322
INCLINATION    = 70.0076
RA_OF_ASC_NODE = 183.3345
ARG_OF_PERICENTER = 268.1556
MEAN_ANOMALY   = 279.5680

EPHEMERIS_TYPE = 0
CLASSIFICATION_TYPE = U
NORAD_CAT_ID   = 66825
ELEMENT_SET_NO = 999
REV_AT_EPOCH   = 363
BSTAR          = -.30288007E-1
MEAN_MOTION_DOT = -.2052212E-1
MEAN_MOTION_DDOT = 0

